{
  "type": "FeatureCollection",
  "features": [
    {
      "type": "Feature",
      "properties": {
        "norad_id": 30683,
        "name": "FENGYUN 1C DEB",
        "group": "fengyun-1c-debris",
        "lat": 34.359458782291455,
        "lon": -165.06491646115848,
        "alt_km": 828.0688443152048,
        "timestamp": "2025-12-22T14:45:57.680683+00:00",
        "meta_object_name": "FENGYUN 1C DEB",
        "meta_object_id": "1999-025AQR",
        "meta_epoch": "2025-12-21T13:05:37.679136",
        "meta_mean_motion": 14.00415415,
        "meta_eccentricity": 0.0138269,
        "meta_inclination": 99.4268,
        "meta_ra_of_asc_node": 7.3106,
        "meta_arg_of_pericenter": 200.5149,
        "meta_mean_anomaly": 315.8935,
        "meta_ephemeris_type": 0,
        "meta_classification_type": "U",
        "meta_norad_cat_id": 30683,
        "meta_element_set_no": 999,
        "meta_rev_at_epoch": 95674,
        "meta_bstar": 0.00085947,
        "meta_mean_motion_dot": 1.336e-05,
        "meta_mean_motion_ddot": 0,
        "tle_line1": "1 30683U 99025AQR 25355.54557499  .00001336  00000+0  85947-3 0  9991",
        "tle_line2": "2 30683  99.4268   7.3106 0138269 200.5149 315.8935 14.00415415956747"
      },
      "geometry": {
        "type": "Point",
        "coordinates": [
          -165.06491646115848,
          34.359458782291455
        ]
      }
    },
    {
      "type": "Feature",
      "properties": {
        "norad_id": 30684,
        "name": "FENGYUN 1C DEB",
        "group": "fengyun-1c-debris",
        "lat": -25.935371969491044,
        "lon": -146.8225666977377,
        "alt_km": 877.1675138988876,
        "timestamp": "2025-12-22T14:45:57.680694+00:00",
        "meta_object_name": "FENGYUN 1C DEB",
        "meta_object_id": "1999-025AQS",
        "meta_epoch": "2025-12-21T00:50:48.741504",
        "meta_mean_motion": 13.66822163,
        "meta_eccentricity": 0.02358167,
        "meta_inclination": 99.5309,
        "meta_ra_of_asc_node": 36.3069,
        "meta_arg_of_pericenter": 248.0087,
        "meta_mean_anomaly": 109.585,
        "meta_ephemeris_type": 0,
        "meta_classification_type": "U",
        "meta_norad_cat_id": 30684,
        "meta_element_set_no": 999,
        "meta_rev_at_epoch": 93742,
        "meta_bstar": 0.00085046597,
        "meta_mean_motion_dot": 8.13e-06,
        "meta_mean_motion_ddot": 0,
        "tle_line1": "1 30684U 99025AQS 25355.03528636  .00000813  00000+0  85047-3 0  9997",
        "tle_line2": "2 30684  99.5309  36.3069 0235816 248.0087 109.5850 13.66822163937420"
      },
      "geometry": {
        "type": "Point",
        "coordinates": [
          -146.8225666977377,
          -25.935371969491044
        ]
      }
    },
    {
      "type": "Feature",
      "properties": {
        "norad_id": 30686,
        "name": "FENGYUN 1C DEB",
        "group": "fengyun-1c-debris",
        "lat": -10.20578218178854,
        "lon": -166.7233129869151,
        "alt_km": 669.1616840312818,
        "timestamp": "2025-12-22T14:45:57.680704+00:00",
        "meta_object_name": "FENGYUN 1C DEB",
        "meta_object_id": "1999-025AQU",
        "meta_epoch": "2025-12-22T05:18:36.658368",
        "meta_mean_motion": 14.73968727,
        "meta_eccentricity": 0.01441248,
        "meta_inclination": 99.0323,
        "meta_ra_of_asc_node": 191.197,
        "meta_arg_of_pericenter": 91.2245,
        "meta_mean_anomaly": 330.771,
        "meta_ephemeris_type": 0,
        "meta_classification_type": "U",
        "meta_norad_cat_id": 30686,
        "meta_element_set_no": 999,
        "meta_rev_at_epoch": 99741,
        "meta_bstar": 0.00066696091,
        "meta_mean_motion_dot": 5.109e-05,
        "meta_mean_motion_ddot": 0,
        "tle_line1": "1 30686U 99025AQU 25356.22125762  .00005109  00000+0  66696-3 0  9996",
        "tle_line2": "2 30686  99.0323 191.1970 0144124  91.2245 330.7710 14.73968727997413"
      },
      "geometry": {
        "type": "Point",
        "coordinates": [
          -166.7233129869151,
          -10.20578218178854
        ]
      }
    },
    {
      "type": "Feature",
      "properties": {
        "norad_id": 30688,
        "name": "FENGYUN 1C DEB",
        "group": "fengyun-1c-debris",
        "lat": -73.33681260110166,
        "lon": 100.8025365828419,
        "alt_km": 778.4992227177845,
        "timestamp": "2025-12-22T14:45:57.680714+00:00",
        "meta_object_name": "FENGYUN 1C DEB",
        "meta_object_id": "1999-025AQW",
        "meta_epoch": "2025-12-21T23:12:13.081248",
        "meta_mean_motion": 14.32769433,
        "meta_eccentricity": 0.00157187,
        "meta_inclination": 98.7009,
        "meta_ra_of_asc_node": 69.3796,
        "meta_arg_of_pericenter": 286.449,
        "meta_mean_anomaly": 255.1513,
        "meta_ephemeris_type": 0,
        "meta_classification_type": "U",
        "meta_norad_cat_id": 30688,
        "meta_element_set_no": 999,
        "meta_rev_at_epoch": 97392,
        "meta_bstar": 0.0014746755,
        "meta_mean_motion_dot": 3.98e-05,
        "meta_mean_motion_ddot": 0,
        "tle_line1": "1 30688U 99025AQW 25355.96681807  .00003980  00000+0  14747-2 0  9999",
        "tle_line2": "2 30688  98.7009  69.3796 0015718 286.4490 255.1513 14.32769433973929"
      },
      "geometry": {
        "type": "Point",
        "coordinates": [
          100.8025365828419,
          -73.33681260110166
        ]
      }
    },
    {
      "type": "Feature",
      "properties": {
        "norad_id": 30689,
        "name": "FENGYUN 1C DEB",
        "group": "fengyun-1c-debris",
        "lat": -72.83862658184401,
        "lon": 132.80455603867844,
        "alt_km": 941.4148556896562,
        "timestamp": "2025-12-22T14:45:57.680724+00:00",
        "meta_object_name": "FENGYUN 1C DEB",
        "meta_object_id": "1999-025AQX",
        "meta_epoch": "2025-12-21T17:59:03.554880",
        "meta_mean_motion": 14.11779705,
        "meta_eccentricity": 0.01117851,
        "meta_inclination": 98.7088,
        "meta_ra_of_asc_node": 341.7218,
        "meta_arg_of_pericenter": 77.9368,
        "meta_mean_anomaly": 98.7626,
        "meta_ephemeris_type": 0,
        "meta_classification_type": "U",
        "meta_norad_cat_id": 30689,
        "meta_element_set_no": 999,
        "meta_rev_at_epoch": 97017,
        "meta_bstar": 0.0002989746,
        "meta_mean_motion_dot": 5.36e-06,
        "meta_mean_motion_ddot": 0,
        "tle_line1": "1 30689U 99025AQX 25355.74934670  .00000536  00000+0  29897-3 0  9992",
        "tle_line2": "2 30689  98.7088 341.7218 0111785  77.9368  98.7626 14.11779705970171"
      },
      "geometry": {
        "type": "Point",
        "coordinates": [
          132.80455603867844,
          -72.83862658184401
        ]
      }
    },
    {
      "type": "Feature",
      "properties": {
        "norad_id": 30690,
        "name": "FENGYUN 1C DEB",
        "group": "fengyun-1c-debris",
        "lat": -33.09058911111632,
        "lon": -66.90378190970368,
        "alt_km": 880.960958392583,
        "timestamp": "2025-12-22T14:45:57.680734+00:00",
        "meta_object_name": "FENGYUN 1C DEB",
        "meta_object_id": "1999-025AQY",
        "meta_epoch": "2025-12-21T14:05:15.585216",
        "meta_mean_motion": 14.0236051,
        "meta_eccentricity": 0.0105027,
        "meta_inclination": 99.1595,
        "meta_ra_of_asc_node": 286.0277,
        "meta_arg_of_pericenter": 51.8867,
        "meta_mean_anomaly": 127.4704,
        "meta_ephemeris_type": 0,
        "meta_classification_type": "U",
        "meta_norad_cat_id": 30690,
        "meta_element_set_no": 999,
        "meta_rev_at_epoch": 95831,
        "meta_bstar": 0.0012317,
        "meta_mean_motion_dot": 1.94e-05,
        "meta_mean_motion_ddot": 0,
        "tle_line1": "1 30690U 99025AQY 25355.58698594  .00001940  00000+0  12317-2 0  9996",
        "tle_line2": "2 30690  99.1595 286.0277 0105027  51.8867 127.4704 14.02360510958313"
      },
      "geometry": {
        "type": "Point",
        "coordinates": [
          -66.90378190970368,
          -33.09058911111632
        ]
      }
    },
    {
      "type": "Feature",
      "properties": {
        "norad_id": 30691,
        "name": "FENGYUN 1C DEB",
        "group": "fengyun-1c-debris",
        "lat": -45.81853920409152,
        "lon": 178.31366081799666,
        "alt_km": 841.4473011748942,
        "timestamp": "2025-12-22T14:45:57.680745+00:00",
        "meta_object_name": "FENGYUN 1C DEB",
        "meta_object_id": "1999-025AQZ",
        "meta_epoch": "2025-12-21T19:31:23.193696",
        "meta_mean_motion": 13.8945761,
        "meta_eccentricity": 0.01395231,
        "meta_inclination": 98.7443,
        "meta_ra_of_asc_node": 6.6727,
        "meta_arg_of_pericenter": 208.2334,
        "meta_mean_anomaly": 329.2553,
        "meta_ephemeris_type": 0,
        "meta_classification_type": "U",
        "meta_norad_cat_id": 30691,
        "meta_element_set_no": 999,
        "meta_rev_at_epoch": 95242,
        "meta_bstar": 0.00085914196,
        "meta_mean_motion_dot": 1.094e-05,
        "meta_mean_motion_ddot": 0,
        "tle_line1": "1 30691U 99025AQZ 25355.81346289  .00001094  00000+0  85914-3 0  9998",
        "tle_line2": "2 30691  98.7443   6.6727 0139523 208.2334 329.2553 13.89457610952424"
      },
      "geometry": {
        "type": "Point",
        "coordinates": [
          178.31366081799666,
          -45.81853920409152
        ]
      }
    }
  ]
}